STARLINK-35588          
1 66424U 25259C   25341.00002315  .00022145  00000+0  53664-3 0  9991
2 66424  43.0009  81.1218 0001542 266.1427 229.3065 15.40654824  5350
STARLINK-35555          
1 66425U 25259D   25341.00002315 -.00118299  00000+0 -28640-2 0  9995
2 66425  43.0010  81.0894 0001825 272.4877 235.3568 15.40748470  5351
STARLINK-35589          
1 66426U 25259E   25341.00002315  .00022639  00000+0  54814-3 0  9999
2 66426  43.0008  81.0603 0001507 280.9929 239.2840 15.40670238  5358
STARLINK-35611          
1 66427U 25259F   25341.00002315  .00052482  00000+0  12556-2 0  9995
2 66427  43.0009  81.0297 0002146 304.2938 228.3124 15.40683852  5359
STARLINK-35610          
1 66428U 25259G   25341.00002315  .00043502  00000+0  10442-2 0  9991
2 66428  43.0012  80.9993 0001958 266.6834 278.4577 15.40656273  5356
STARLINK-35533          
1 66429U 25259H   25341.00002315 -.00240737  00000+0 -59155-2 0  9997
2 66429  43.0013  80.9673 0001657 280.0087 277.5606 15.40819305  5359
STARLINK-35470          
1 66430U 25259J   25341.00002315 -.02384104  00000+0 -60072-1 0  9997
2 66430  43.0010  80.9420 0001163 278.8341 289.9103 15.42668767  5353
STARLINK-35439          
1 66431U 25259K   25341.00002315 -.02055157  00000+0 -49853-1 0  9995
2 66431  43.0014  80.9159 0001001 263.1584 315.4532 15.43835574  5358
STARLINK-35446          
1 66432U 25259L   25341.00002315 -.02077191  00000+0 -48204-1 0  9997
2 66432  43.0011  80.8960 0001178 276.0594 310.9760 15.45160344  5355
STARLINK-35457          
1 66433U 25259M   25340.69911878  .00165357  00000+0  27243-2 0  9994
2 66433  42.9997  82.6182 0007597 324.7916  35.2442 15.50973931  5234
STARLINK-35389          
1 66434U 25259N   25341.00002315 -.02108106  00000+0 -44636-1 0  9995
2 66434  43.0008  80.8652 0001252 268.0249 331.5869 15.47839743  5359
STARLINK-35502          
1 66435U 25259P   25341.00002315 -.02110691  00000+0 -42641-1 0  9992
2 66435  43.0011  80.8560 0001299 266.1798 337.5964 15.49168976  5358
