CCSDS_OMM_VERS = 2.0
CREATION_DATE  = 
ORIGINATOR     = 

OBJECT_NAME    = STARLINK-35588
OBJECT_ID      = 2025-259C
CENTER_NAME    = EARTH
REF_FRAME      = TEME
TIME_SYSTEM    = UTC
MEAN_ELEMENT_THEORY = SGP/SGP4

EPOCH          = 2025-12-07T00:00:02.000160
MEAN_MOTION    = 15.40654824
ECCENTRICITY   = .0001542
INCLINATION    = 43.0009
RA_OF_ASC_NODE = 81.1218
ARG_OF_PERICENTER = 266.1427
MEAN_ANOMALY   = 229.3065

EPHEMERIS_TYPE = 0
CLASSIFICATION_TYPE = U
NORAD_CAT_ID   = 66424
ELEMENT_SET_NO = 999
REV_AT_EPOCH   = 535
BSTAR          = .53663955E-3
MEAN_MOTION_DOT = .22145E-3
MEAN_MOTION_DDOT = 0

CCSDS_OMM_VERS = 2.0
CREATION_DATE  = 
ORIGINATOR     = 

OBJECT_NAME    = STARLINK-35555
OBJECT_ID      = 2025-259D
CENTER_NAME    = EARTH
REF_FRAME      = TEME
TIME_SYSTEM    = UTC
MEAN_ELEMENT_THEORY = SGP/SGP4

EPOCH          = 2025-12-07T00:00:02.000160
MEAN_MOTION    = 15.40748470
ECCENTRICITY   = .00018259
INCLINATION    = 43.0010
RA_OF_ASC_NODE = 81.0894
ARG_OF_PERICENTER = 272.4877
MEAN_ANOMALY   = 235.3568

EPHEMERIS_TYPE = 0
CLASSIFICATION_TYPE = U
NORAD_CAT_ID   = 66425
ELEMENT_SET_NO = 999
REV_AT_EPOCH   = 535
BSTAR          = -.28639977E-2
MEAN_MOTION_DOT = -.118299E-2
MEAN_MOTION_DDOT = 0

CCSDS_OMM_VERS = 2.0
CREATION_DATE  = 
ORIGINATOR     = 

OBJECT_NAME    = STARLINK-35589
OBJECT_ID      = 2025-259E
CENTER_NAME    = EARTH
REF_FRAME      = TEME
TIME_SYSTEM    = UTC
MEAN_ELEMENT_THEORY = SGP/SGP4

EPOCH          = 2025-12-07T00:00:02.000160
MEAN_MOTION    = 15.40670238
ECCENTRICITY   = .00015079
INCLINATION    = 43.0008
RA_OF_ASC_NODE = 81.0603
ARG_OF_PERICENTER = 280.9929
MEAN_ANOMALY   = 239.2840

EPHEMERIS_TYPE = 0
CLASSIFICATION_TYPE = U
NORAD_CAT_ID   = 66426
ELEMENT_SET_NO = 999
REV_AT_EPOCH   = 535
BSTAR          = .54813621E-3
MEAN_MOTION_DOT = .22639E-3
MEAN_MOTION_DDOT = 0

CCSDS_OMM_VERS = 2.0
CREATION_DATE  = 
ORIGINATOR     = 

OBJECT_NAME    = STARLINK-35611
OBJECT_ID      = 2025-259F
CENTER_NAME    = EARTH
REF_FRAME      = TEME
TIME_SYSTEM    = UTC
MEAN_ELEMENT_THEORY = SGP/SGP4

EPOCH          = 2025-12-07T00:00:02.000160
MEAN_MOTION    = 15.40683852
ECCENTRICITY   = .00021469
INCLINATION    = 43.0009
RA_OF_ASC_NODE = 81.0297
ARG_OF_PERICENTER = 304.2938
MEAN_ANOMALY   = 228.3124

EPHEMERIS_TYPE = 0
CLASSIFICATION_TYPE = U
NORAD_CAT_ID   = 66427
ELEMENT_SET_NO = 999
REV_AT_EPOCH   = 535
BSTAR          = .12556228E-2
MEAN_MOTION_DOT = .52482E-3
MEAN_MOTION_DDOT = 0

CCSDS_OMM_VERS = 2.0
CREATION_DATE  = 
ORIGINATOR     = 

OBJECT_NAME    = STARLINK-35610
OBJECT_ID      = 2025-259G
CENTER_NAME    = EARTH
REF_FRAME      = TEME
TIME_SYSTEM    = UTC
MEAN_ELEMENT_THEORY = SGP/SGP4

EPOCH          = 2025-12-07T00:00:02.000160
MEAN_MOTION    = 15.40656273
ECCENTRICITY   = .00019589
INCLINATION    = 43.0012
RA_OF_ASC_NODE = 80.9993
ARG_OF_PERICENTER = 266.6834
MEAN_ANOMALY   = 278.4577

EPHEMERIS_TYPE = 0
CLASSIFICATION_TYPE = U
NORAD_CAT_ID   = 66428
ELEMENT_SET_NO = 999
REV_AT_EPOCH   = 535
BSTAR          = .10442208E-2
MEAN_MOTION_DOT = .43502E-3
MEAN_MOTION_DDOT = 0

CCSDS_OMM_VERS = 2.0
CREATION_DATE  = 
ORIGINATOR     = 

OBJECT_NAME    = STARLINK-35533
OBJECT_ID      = 2025-259H
CENTER_NAME    = EARTH
REF_FRAME      = TEME
TIME_SYSTEM    = UTC
MEAN_ELEMENT_THEORY = SGP/SGP4

EPOCH          = 2025-12-07T00:00:02.000160
MEAN_MOTION    = 15.40819305
ECCENTRICITY   = .00016575
INCLINATION    = 43.0013
RA_OF_ASC_NODE = 80.9673
ARG_OF_PERICENTER = 280.0087
MEAN_ANOMALY   = 277.5606

EPHEMERIS_TYPE = 0
CLASSIFICATION_TYPE = U
NORAD_CAT_ID   = 66429
ELEMENT_SET_NO = 999
REV_AT_EPOCH   = 535
BSTAR          = -.59154779E-2
MEAN_MOTION_DOT = -.240737E-2
MEAN_MOTION_DDOT = 0

CCSDS_OMM_VERS = 2.0
CREATION_DATE  = 
ORIGINATOR     = 

OBJECT_NAME    = STARLINK-35470
OBJECT_ID      = 2025-259J
CENTER_NAME    = EARTH
REF_FRAME      = TEME
TIME_SYSTEM    = UTC
MEAN_ELEMENT_THEORY = SGP/SGP4

EPOCH          = 2025-12-07T00:00:02.000160
MEAN_MOTION    = 15.42668767
ECCENTRICITY   = .00011636
INCLINATION    = 43.0010
RA_OF_ASC_NODE = 80.9420
ARG_OF_PERICENTER = 278.8341
MEAN_ANOMALY   = 289.9103

EPHEMERIS_TYPE = 0
CLASSIFICATION_TYPE = U
NORAD_CAT_ID   = 66430
ELEMENT_SET_NO = 999
REV_AT_EPOCH   = 535
BSTAR          = -.60071655E-1
MEAN_MOTION_DOT = -.2384104E-1
MEAN_MOTION_DDOT = 0

CCSDS_OMM_VERS = 2.0
CREATION_DATE  = 
ORIGINATOR     = 

OBJECT_NAME    = STARLINK-35439
OBJECT_ID      = 2025-259K
CENTER_NAME    = EARTH
REF_FRAME      = TEME
TIME_SYSTEM    = UTC
MEAN_ELEMENT_THEORY = SGP/SGP4

EPOCH          = 2025-12-07T00:00:02.000160
MEAN_MOTION    = 15.43835574
ECCENTRICITY   = .00010012
INCLINATION    = 43.0014
RA_OF_ASC_NODE = 80.9159
ARG_OF_PERICENTER = 263.1584
MEAN_ANOMALY   = 315.4532

EPHEMERIS_TYPE = 0
CLASSIFICATION_TYPE = U
NORAD_CAT_ID   = 66431
ELEMENT_SET_NO = 999
REV_AT_EPOCH   = 535
BSTAR          = -.49852555E-1
MEAN_MOTION_DOT = -.2055157E-1
MEAN_MOTION_DDOT = 0

CCSDS_OMM_VERS = 2.0
CREATION_DATE  = 
ORIGINATOR     = 

OBJECT_NAME    = STARLINK-35446
OBJECT_ID      = 2025-259L
CENTER_NAME    = EARTH
REF_FRAME      = TEME
TIME_SYSTEM    = UTC
MEAN_ELEMENT_THEORY = SGP/SGP4

EPOCH          = 2025-12-07T00:00:02.000160
MEAN_MOTION    = 15.45160344
ECCENTRICITY   = .0001178
INCLINATION    = 43.0011
RA_OF_ASC_NODE = 80.8960
ARG_OF_PERICENTER = 276.0594
MEAN_ANOMALY   = 310.9760

EPHEMERIS_TYPE = 0
CLASSIFICATION_TYPE = U
NORAD_CAT_ID   = 66432
ELEMENT_SET_NO = 999
REV_AT_EPOCH   = 535
BSTAR          = -.48203807E-1
MEAN_MOTION_DOT = -.2077191E-1
MEAN_MOTION_DDOT = 0

CCSDS_OMM_VERS = 2.0
CREATION_DATE  = 
ORIGINATOR     = 

OBJECT_NAME    = STARLINK-35457
OBJECT_ID      = 2025-259M
CENTER_NAME    = EARTH
REF_FRAME      = TEME
TIME_SYSTEM    = UTC
MEAN_ELEMENT_THEORY = SGP/SGP4

EPOCH          = 2025-12-06T16:46:43.862592
MEAN_MOTION    = 15.50973931
ECCENTRICITY   = .00075971
INCLINATION    = 42.9997
RA_OF_ASC_NODE = 82.6182
ARG_OF_PERICENTER = 324.7916
MEAN_ANOMALY   = 35.2442

EPHEMERIS_TYPE = 0
CLASSIFICATION_TYPE = U
NORAD_CAT_ID   = 66433
ELEMENT_SET_NO = 999
REV_AT_EPOCH   = 523
BSTAR          = .27243451E-2
MEAN_MOTION_DOT = .165357E-2
MEAN_MOTION_DDOT = 0

CCSDS_OMM_VERS = 2.0
CREATION_DATE  = 
ORIGINATOR     = 

OBJECT_NAME    = STARLINK-35389
OBJECT_ID      = 2025-259N
CENTER_NAME    = EARTH
REF_FRAME      = TEME
TIME_SYSTEM    = UTC
MEAN_ELEMENT_THEORY = SGP/SGP4

EPOCH          = 2025-12-07T00:00:02.000160
MEAN_MOTION    = 15.47839743
ECCENTRICITY   = .00012523
INCLINATION    = 43.0008
RA_OF_ASC_NODE = 80.8652
ARG_OF_PERICENTER = 268.0249
MEAN_ANOMALY   = 331.5869

EPHEMERIS_TYPE = 0
CLASSIFICATION_TYPE = U
NORAD_CAT_ID   = 66434
ELEMENT_SET_NO = 999
REV_AT_EPOCH   = 535
BSTAR          = -.44635774E-1
MEAN_MOTION_DOT = -.2108106E-1
MEAN_MOTION_DDOT = 0

CCSDS_OMM_VERS = 2.0
CREATION_DATE  = 
ORIGINATOR     = 

OBJECT_NAME    = STARLINK-35502
OBJECT_ID      = 2025-259P
CENTER_NAME    = EARTH
REF_FRAME      = TEME
TIME_SYSTEM    = UTC
MEAN_ELEMENT_THEORY = SGP/SGP4

EPOCH          = 2025-12-07T00:00:02.000160
MEAN_MOTION    = 15.49168976
ECCENTRICITY   = .00012993
INCLINATION    = 43.0011
RA_OF_ASC_NODE = 80.8560
ARG_OF_PERICENTER = 266.1798
MEAN_ANOMALY   = 337.5964

EPHEMERIS_TYPE = 0
CLASSIFICATION_TYPE = U
NORAD_CAT_ID   = 66435
ELEMENT_SET_NO = 999
REV_AT_EPOCH   = 535
BSTAR          = -.42641307E-1
MEAN_MOTION_DOT = -.2110691E-1
MEAN_MOTION_DDOT = 0

